[{"OBJECT_NAME":"STARLINK-2388","OBJECT_ID":"2021-018W","EPOCH":"2026-03-09T16:57:08.803296","MEAN_MOTION":15.30196777,"ECCENTRICITY":0.0001071,"INCLINATION":53.1597,"RA_OF_ASC_NODE":216.6328,"ARG_OF_PERICENTER":96.2177,"MEAN_ANOMALY":263.8945,"EPHEMERIS_TYPE":0,"CLASSIFICATION_TYPE":"U","NORAD_CAT_ID":47807,"ELEMENT_SET_NO":999,"REV_AT_EPOCH":27708,"BSTAR":3.8947405e-5,"MEAN_MOTION_DOT":7.94e-6,"MEAN_MOTION_DDOT":0},{"OBJECT_NAME":"MESON-1","OBJECT_ID":"2024-043AK","EPOCH":"2026-03-09T21:36:16.481664","MEAN_MOTION":15.29893494,"ECCENTRICITY":0.00095452,"INCLINATION":97.5469,"RA_OF_ASC_NODE":205.2839,"ARG_OF_PERICENTER":227.1432,"MEAN_ANOMALY":132.9007,"EPHEMERIS_TYPE":0,"CLASSIFICATION_TYPE":"U","NORAD_CAT_ID":59131,"ELEMENT_SET_NO":999,"REV_AT_EPOCH":11189,"BSTAR":0.0002974823,"MEAN_MOTION_DOT":8.544e-5,"MEAN_MOTION_DDOT":0}]
